{"type": "FeatureCollection", "features": [ {"type": "Feature", "properties": {"norad_id": 31516, "name": "FENGYUN 1C DEB", "group": "fengyun-1c-debris", "lat": 72.69710068334153, "lon": 67.52954726171598, "alt_km": 906.6726933539094, "timestamp": "2025-12-07T14:37:05.487472+00:00", "meta": {"OBJECT_NAME": "FENGYUN 1C DEB", "OBJECT_ID": "1999-025BXF", "EPOCH": "2025-12-06T14:44:45.755808", "MEAN_MOTION": 14.25387598, "ECCENTRICITY": 0.01482712, "INCLINATION": 98.8322, "RA_OF_ASC_NODE": 96.469, "ARG_OF_PERICENTER": 256.3951, "MEAN_ANOMALY": 117.558, "EPHEMERIS_TYPE": 0, "CLASSIFICATION_TYPE": "U", "NORAD_CAT_ID": 31516, "ELEMENT_SET_NO": 999, "REV_AT_EPOCH": 96405, "BSTAR": 0.00082607439, "MEAN_MOTION_DOT": 2.138e-05, "MEAN_MOTION_DDOT": 0}, "tle": {"line1": "1 31516U 99025BXF 25340.61441847  .00002138  00000+0  82607-3 0  9999", "line2": "2 31516  98.8322  96.4690 0148271 256.3951 117.5580 14.25387598964051"}}, "geometry": {"type": "Point", "coordinates": [67.52954726171598, 72.69710068334153]}}, {"type": "Feature", "properties": {"norad_id": 31519, "name": "FENGYUN 1C DEB", "group": "fengyun-1c-debris", "lat": -50.72132898475747, "lon": 147.66319937637041, "alt_km": 787.5594588996391, "timestamp": "2025-12-07T14:37:05.487482+00:00", "meta": {"OBJECT_NAME": "FENGYUN 1C DEB", "OBJECT_ID": "1999-025BXJ", "EPOCH": "2025-12-02T05:18:38.960928", "MEAN_MOTION": 14.23363236, "ECCENTRICITY": 0.0051768, "INCLINATION": 98.5732, "RA_OF_ASC_NODE": 333.0436, "ARG_OF_PERICENTER": 273.8971, "MEAN_ANOMALY": 85.629, "EPHEMERIS_TYPE": 0, "CLASSIFICATION_TYPE": "U", "NORAD_CAT_ID": 31519, "ELEMENT_SET_NO": 999, "REV_AT_EPOCH": 64615, "BSTAR": 0.00061131, "MEAN_MOTION_DOT": 1.362e-05, "MEAN_MOTION_DDOT": 0}, "tle": {"line1": "1 31519U 99025BXJ 25336.22128427  .00001362  00000+0  61131-3 0  9997", "line2": "2 31519  98.5732 333.0436 0051768 273.8971  85.6290 14.23363236646156"}}, "geometry": {"type": "Point", "coordinates": [147.66319937637041, -50.72132898475747]}}, {"type": "Feature", "properties": {"norad_id": 31522, "name": "FENGYUN 1C DEB", "group": "fengyun-1c-debris", "lat": -53.76986128089341, "lon": 12.106146791042232, "alt_km": 887.0084435315975, "timestamp": "2025-12-07T14:37:05.487493+00:00", "meta": {"OBJECT_NAME": "FENGYUN 1C DEB", "OBJECT_ID": "1999-025BXM", "EPOCH": "2025-12-06T08:05:32.875584", "MEAN_MOTION": 14.03982207, "ECCENTRICITY": 0.00430951, "INCLINATION": 98.7082, "RA_OF_ASC_NODE": 358.8132, "ARG_OF_PERICENTER": 218.6501, "MEAN_ANOMALY": 141.158, "EPHEMERIS_TYPE": 0, "CLASSIFICATION_TYPE": "U", "NORAD_CAT_ID": 31522, "ELEMENT_SET_NO": 999, "REV_AT_EPOCH": 94906, "BSTAR": 0.0010637861, "MEAN_MOTION_DOT": 1.653e-05, "MEAN_MOTION_DDOT": 0}, "tle": {"line1": "1 31522U 99025BXM 25340.33718606  .00001653  00000+0  10638-2 0  9990", "line2": "2 31522  98.7082 358.8132 0043095 218.6501 141.1580 14.03982207949067"}}, "geometry": {"type": "Point", "coordinates": [12.106146791042232, -53.76986128089341]}}, {"type": "Feature", "properties": {"norad_id": 31523, "name": "FENGYUN 1C DEB", "group": "fengyun-1c-debris", "lat": -32.18248873688393, "lon": 34.82618649009632, "alt_km": 878.2856412888459, "timestamp": "2025-12-07T14:37:05.487504+00:00", "meta": {"OBJECT_NAME": "FENGYUN 1C DEB", "OBJECT_ID": "1999-025BXN", "EPOCH": "2025-12-06T22:22:48.102816", "MEAN_MOTION": 14.13859098, "ECCENTRICITY": 0.00392756, "INCLINATION": 98.7581, "RA_OF_ASC_NODE": 28.5963, "ARG_OF_PERICENTER": 126.2002, "MEAN_ANOMALY": 359.6277, "EPHEMERIS_TYPE": 0, "CLASSIFICATION_TYPE": "U", "NORAD_CAT_ID": 31523, "ELEMENT_SET_NO": 999, "REV_AT_EPOCH": 95925, "BSTAR": 4.8132042e-05, "MEAN_MOTION_DOT": 4.9e-07, "MEAN_MOTION_DDOT": 0}, "tle": {"line1": "1 31523U 99025BXN 25340.93250119  .00000049  00000+0  48132-4 0  9997", "line2": "2 31523  98.7581  28.5963 0039275 126.2002 359.6277 14.13859098959253"}}, "geometry": {"type": "Point", "coordinates": [34.82618649009632, -32.18248873688393]}}, {"type": "Feature", "properties": {"norad_id": 31527, "name": "FENGYUN 1C DEB", "group": "fengyun-1c-debris", "lat": -79.9988225680796, "lon": -94.68783326047657, "alt_km": 941.949242159606, "timestamp": "2025-12-07T14:37:05.487514+00:00", "meta": {"OBJECT_NAME": "FENGYUN 1C DEB", "OBJECT_ID": "1999-025BXS", "EPOCH": "2025-11-28T16:57:37.524384", "MEAN_MOTION": 13.23385857, "ECCENTRICITY": 0.04495652, "INCLINATION": 98.8931, "RA_OF_ASC_NODE": 140.2922, "ARG_OF_PERICENTER": 334.6734, "MEAN_ANOMALY": 23.2945, "EPHEMERIS_TYPE": 0, "CLASSIFICATION_TYPE": "U", "NORAD_CAT_ID": 31527, "ELEMENT_SET_NO": 999, "REV_AT_EPOCH": 90004, "BSTAR": 0.00062155533, "MEAN_MOTION_DOT": 4.13e-06, "MEAN_MOTION_DDOT": 0}, "tle": {"line1": "1 31527U 99025BXS 25332.70668431  .00000413  00000+0  62156-3 0  9993", "line2": "2 31527  98.8931 140.2922 0449565 334.6734  23.2945 13.23385857900044"}}, "geometry": {"type": "Point", "coordinates": [-94.68783326047657, -79.9988225680796]}}, {"type": "Feature", "properties": {"norad_id": 31531, "name": "FENGYUN 1C DEB", "group": "fengyun-1c-debris", "lat": -80.51938161364897, "lon": 144.49693434198917, "alt_km": 614.5155699847055, "timestamp": "2025-12-07T14:37:05.487524+00:00", "meta": {"OBJECT_NAME": "FENGYUN 1C DEB", "OBJECT_ID": "1999-025BXW", "EPOCH": "2025-12-03T20:42:43.358112", "MEAN_MOTION": 14.3554776, "ECCENTRICITY": 0.0244077, "INCLINATION": 98.3841, "RA_OF_ASC_NODE": 22.8746, "ARG_OF_PERICENTER": 295.232, "MEAN_ANOMALY": 62.3747, "EPHEMERIS_TYPE": 0, "CLASSIFICATION_TYPE": "U", "NORAD_CAT_ID": 31531, "ELEMENT_SET_NO": 999, "REV_AT_EPOCH": 63807, "BSTAR": 0.0015833, "MEAN_MOTION_DOT": 6.351e-05, "MEAN_MOTION_DDOT": 0}, "tle": {"line1": "1 31531U 99025BXW 25337.86300183  .00006351  00000+0  15833-2 0  9993", "line2": "2 31531  98.3841  22.8746 0244077 295.2320  62.3747 14.35547760638079"}}, "geometry": {"type": "Point", "coordinates": [144.49693434198917, -80.51938161364897]}}, {"type": "Feature", "properties": {"norad_id": 31533, "name": "FENGYUN 1C DEB", "group": "fengyun-1c-debris", "lat": -38.44605609622674, "lon": 46.432996373068534, "alt_km": 844.9701874658449, "timestamp": "2025-12-07T14:37:05.487534+00:00", "meta": {"OBJECT_NAME": "FENGYUN 1C DEB", "OBJECT_ID": "1999-025BXY", "EPOCH": "2025-12-06T22:27:19.947456", "MEAN_MOTION": 14.27609328, "ECCENTRICITY": 0.00659333, "INCLINATION": 98.9608, "RA_OF_ASC_NODE": 232.9388, "ARG_OF_PERICENTER": 6.2581, "MEAN_ANOMALY": 353.9407, "EPHEMERIS_TYPE": 0, "CLASSIFICATION_TYPE": "U", "NORAD_CAT_ID": 31533, "ELEMENT_SET_NO": 999, "REV_AT_EPOCH": 66040, "BSTAR": 0.00070582767, "MEAN_MOTION_DOT": 1.732e-05, "MEAN_MOTION_DDOT": 0}, "tle": {"line1": "1 31533U 99025BXY 25340.93564754  .00001732  00000+0  70583-3 0  9995", "line2": "2 31533  98.9608 232.9388 0065933   6.2581 353.9407 14.27609328660409"}}, "geometry": {"type": "Point", "coordinates": [46.432996373068534, -38.44605609622674]}}, {"type": "Feature", "properties": {"norad_id": 31535, "name": "FENGYUN 1C DEB", "group": "fengyun-1c-debris", "lat": -3.5984144936708624, "lon": 11.429582051562448, "alt_km": 738.4609788090738, "timestamp": "2025-12-07T14:37:05.487544+00:00", "meta": {"OBJECT_NAME": "FENGYUN 1C DEB", "OBJECT_ID": "1999-025BYA", "EPOCH": "2025-12-02T19:25:54.598080", "MEAN_MOTION": 14.28271502, "ECCENTRICITY": 0.00872856, "INCLINATION": 98.0356, "RA_OF_ASC_NODE": 187.5187, "ARG_OF_PERICENTER": 192.6029, "MEAN_ANOMALY": 167.2972, "EPHEMERIS_TYPE": 0, "CLASSIFICATION_TYPE": "U", "NORAD_CAT_ID": 31535, "ELEMENT_SET_NO": 999, "REV_AT_EPOCH": 71789, "BSTAR": 0.0009225818, "MEAN_MOTION_DOT": 2.358e-05, "MEAN_MOTION_DDOT": 0}, "tle": {"line1": "1 31535U 99025BYA 25336.80965970  .00002358  00000+0  92258-3 0  9991", "line2": "2 31535  98.0356 187.5187 0087285 192.6029 167.2972 14.28271502717894"}}, "geometry": {"type": "Point", "coordinates": [11.429582051562448, -3.5984144936708624]}}, {"type": "Feature", "properties": {"norad_id": 31536, "name": "FENGYUN 1C DEB", "group": "fengyun-1c-debris", "lat": -80.2739319594213, "lon": -53.2616144936193, "alt_km": 800.9110870511577, "timestamp": "2025-12-07T14:37:05.487554+00:00", "meta": {"OBJECT_NAME": "FENGYUN 1C DEB", "OBJECT_ID": "1999-025BYB", "EPOCH": "2025-12-05T11:50:00.103200", "MEAN_MOTION": 14.54180681, "ECCENTRICITY": 0.02943903, "INCLINATION": 98.2367, "RA_OF_ASC_NODE": 246.9697, "ARG_OF_PERICENTER": 167.1341, "MEAN_ANOMALY": 193.7582, "EPHEMERIS_TYPE": 0, "CLASSIFICATION_TYPE": "U", "NORAD_CAT_ID": 31536, "ELEMENT_SET_NO": 999, "REV_AT_EPOCH": 96152, "BSTAR": 0.0016445159, "MEAN_MOTION_DOT": 0.00012423, "MEAN_MOTION_DDOT": 0}, "tle": {"line1": "1 31536U 99025BYB 25339.49305675  .00012423  00000+0  16445-2 0  9997", "line2": "2 31536  98.2367 246.9697 0294390 167.1341 193.7582 14.54180681961524"}}, "geometry": {"type": "Point", "coordinates": [-53.2616144936193, -80.2739319594213]}}, {"type": "Feature", "properties": {"norad_id": 31537, "name": "FENGYUN 1C DEB", "group": "fengyun-1c-debris", "lat": -7.557391465215177, "lon": -46.75904072760426, "alt_km": 1047.5505792239837, "timestamp": "2025-12-07T14:37:05.487564+00:00", "meta": {"OBJECT_NAME": "FENGYUN 1C DEB", "OBJECT_ID": "1999-025BYC", "EPOCH": "2025-12-03T16:43:33.231360", "MEAN_MOTION": 14.20110126, "ECCENTRICITY": 0.03493254, "INCLINATION": 99.2929, "RA_OF_ASC_NODE": 130.3693, "ARG_OF_PERICENTER": 350.1481, "MEAN_ANOMALY": 9.2962, "EPHEMERIS_TYPE": 0, "CLASSIFICATION_TYPE": "U", "NORAD_CAT_ID": 31537, "ELEMENT_SET_NO": 999, "REV_AT_EPOCH": 93153, "BSTAR": 0.0024793535, "MEAN_MOTION_DOT": 9.745e-05, "MEAN_MOTION_DDOT": 0}, "tle": {"line1": "1 31537U 99025BYC 25337.69691240  .00009745  00000+0  24794-2 0  9993", "line2": "2 31537  99.2929 130.3693 0349325 350.1481   9.2962 14.20110126931531"}}, "geometry": {"type": "Point", "coordinates": [-46.75904072760426, -7.557391465215177]}}]}